NORAD_CAT_ID,OBJECT_NAME,OBJECT_TYPE,EPOCH,MEAN_MOTION,ECCENTRICITY,INCLINATION,RA_OF_ASC_NODE,ARG_OF_PERICENTER,MEAN_ANOMALY,BSTAR,MEAN_MOTION_DOT,MEAN_MOTION_DDOT,TLE_LINE0,TLE_LINE1,TLE_LINE2,SEMIMAJOR_AXIS,PERIOD,APOGEE,PERIGEE,DECAYED
49440.0,STARLINK-3105,PAYLOAD,2023-01-09 15:50:13,15.08812312,0.0003015,53.2147,354.2579,65.3474,294.7832,0.0011774,0.00018486,0.0,0 STARLINK-3105,1 49440U 21104AJ  23009.65987809  .00018486  00000-0  11774-2 0  9994,2 49440  53.2147 354.2579 0003015  65.3474 294.7832 15.08812312 65612,6917.965,95.439,541.9159999999998,537.744,0.0
49440.0,STARLINK-3105,PAYLOAD,2023-01-10 07:44:05,15.08835556,0.0001987,53.2151,351.2862,88.7078,271.4142,0.0013791,0.00021726,0.0,0 STARLINK-3105,1 49440U 21104AJ  23010.32228019  .00021726  00000-0  13791-2 0  9993,2 49440  53.2151 351.2862 0001987  88.7078 271.4142 15.08835556 64647,6917.894,95.438,541.134,538.384,0.0
49440.0,STARLINK-3105,PAYLOAD,2023-01-10 22:02:33,15.08838529,0.0001645,53.2139,348.6093,87.3133,272.8047,0.00066551,0.00010319,0.0,0 STARLINK-3105,1 49440U 21104AJ  23010.91844200  .00010319  00000-0  66551-3 0  9993,2 49440  53.2139 348.6093 0001645  87.3133 272.8047 15.08838529 65808,6917.885,95.438,540.888,538.612,0.0
49440.0,STARLINK-3105,PAYLOAD,2023-01-11 10:45:37,15.08871578,0.0001595,53.2151,346.2306,87.4596,272.6579,0.001456,0.0002298,0.0,0 STARLINK-3105,1 49440U 21104AJ  23011.44835456  .00022980  00000-0  14560-2 0  9994,2 49440  53.2151 346.2306 0001595  87.4596 272.6579 15.08871578 65888,6917.7840000000015,95.436,540.752,538.545,0.0
49440.0,STARLINK-3105,PAYLOAD,2023-01-11 15:31:47,15.08835706,0.0001943,53.2168,345.3356,100.5182,259.6029,3.7777e-05,3.13e-06,0.0,0 STARLINK-3105,1 49440U 21104AJ  23011.64708140  .00000313  00000-0  37777-4 0  9998,2 49440  53.2168 345.3356 0001943 100.5182 259.6029 15.08835706 65918,6917.894,95.438,541.1030000000002,538.414,0.0
49440.0,STARLINK-3105,PAYLOAD,2023-01-11 21:53:20,15.08843075,0.0001501999999999,53.2154,344.1501,95.6876,264.4287,0.00033602,5.064e-05,0.0,0 STARLINK-3105,1 49440U 21104AJ  23011.91204004  .00005064  00000-0  33602-3 0  9998,2 49440  53.2154 344.1501 0001502  95.6876 264.4287 15.08843075 64880,6917.871,95.437,540.775,538.697,0.0
49440.0,STARLINK-3105,PAYLOAD,2023-01-12 04:14:52,15.08851422,0.0001575999999999,53.2149,342.9613,99.3804,260.7366,0.0017894,0.00028314,0.0,0 STARLINK-3105,1 49440U 21104AJ  23012.17699985  .00028314  00000-0  17894-2 0  9990,2 49440  53.2149 342.9613 0001576  99.3804 260.7366 15.08851422 65992,6917.845,95.437,540.8009999999998,538.62,0.0
49440.0,STARLINK-3105,PAYLOAD,2023-01-12 15:22:35,15.08848395,0.0001698,53.2152,340.8781,98.0779,262.0406,0.0014755,0.00023278,0.0,0 STARLINK-3105,1 49440U 21104AJ  23012.64068305  .00023278  00000-0  14755-2 0  9995,2 49440  53.2152 340.8781 0001698  98.0779 262.0406 15.08848395 66065,6917.855,95.437,540.894,538.545,0.0
49440.0,STARLINK-3105,PAYLOAD,2023-01-12 21:44:07,15.08849236,0.0002137,53.2152,339.6887,106.5237,253.599,0.0016618,0.00026266,0.0,0 STARLINK-3105,1 49440U 21104AJ  23012.90564443  .00026266  00000-0  16618-2 0  9998,2 49440  53.2152 339.6887 0002137 106.5237 253.5990 15.08849236 65035,6917.852,95.437,541.196,538.239,0.0
49440.0,STARLINK-3105,PAYLOAD,2023-01-13 00:54:53,15.08842547,0.0001891,53.2158,339.0935,104.9931,255.1271,0.00092574,0.00014477,0.0,0 STARLINK-3105,1 49440U 21104AJ  23013.03812454  .00014477  00000-0  92574-3 0  9998,2 49440  53.2158 339.0935 0001891 104.9931 255.1271 15.08842547 66127,6917.873000000001,95.437,541.0459999999998,538.429,0.0
49440.0,STARLINK-3105,PAYLOAD,2023-01-13 04:05:40,15.08845841,0.0001871,53.2148,338.4979,106.972,253.1477,0.00064134,9.935e-05,0.0,0 STARLINK-3105,1 49440U 21104AJ  23013.17060348  .00009935  00000-0  64134-3 0  9994,2 49440  53.2148 338.4979 0001871 106.9720 253.1477 15.08845841 65072,6917.863,95.437,541.0219999999999,538.433,0.0
49440.0,STARLINK-3105,PAYLOAD,2023-01-13 21:34:54,15.08853005,0.0001458,53.214,335.2295,94.2711,265.8447,0.0011518,0.00018097,0.0,0 STARLINK-3105,1 49440U 21104AJ  23013.89924645  .00018097  00000-0  11518-2 0  9998,2 49440  53.2140 335.2295 0001458  94.2711 265.8447 15.08853005 65180,6917.840999999999,95.437,540.714,538.697,0.0
49440.0,STARLINK-3105,PAYLOAD,2023-01-14 07:07:13,15.08866624,0.0001343,53.2152,333.4434,86.5573,273.5572,0.0013145,0.00020709,0.0,0 STARLINK-3105,1 49440U 21104AJ  23014.29668226  .00020709  00000-0  13145-2 0  9994,2 49440  53.2152 333.4434 0001343  86.5573 273.5572 15.08866624 66313,6917.799,95.436,540.5930000000001,538.735,0.0
49440.0,STARLINK-3105,PAYLOAD,2023-01-14 21:25:41,15.08862256,0.000153,53.2149,330.7656,84.6302,275.4864,0.0006762,0.00010497,0.0,0 STARLINK-3105,1 49440U 21104AJ  23014.89284252  .00010497  00000-0  67620-3 0  9994,2 49440  53.2149 330.7656 0001530  84.6302 275.4864 15.08862256 66404,6917.812,95.436,540.736,538.619,0.0
49440.0,STARLINK-3105,PAYLOAD,2023-01-15 05:22:36,15.08881459,0.0001488,53.2155,329.2813,97.481,262.6351,0.0024184,0.00038455,0.0,0 STARLINK-3105,1 49440U 21104AJ  23015.22403662  .00038455  00000-0  24184-2 0  9991,2 49440  53.2155 329.2813 0001488  97.4810 262.6351 15.08881459 66457,6917.754,95.435,540.648,538.589,0.0
49440.0,STARLINK-3105,PAYLOAD,2023-01-15 19:41:04,15.08870613,0.0002384,53.216,326.6037,94.1122,266.0143,0.0019732,0.00031282,0.0,0 STARLINK-3105,1 49440U 21104AJ  23015.82019375  .00031282  00000-0  19732-2 0  9995,2 49440  53.2160 326.6037 0002384  94.1122 266.0143 15.08870613 66545,6917.786999999999,95.436,541.3009999999999,538.003,0.0
49440.0,STARLINK-3105,PAYLOAD,2023-01-16 03:37:59,15.08879352,0.0001217999999999,53.2158,325.1164,107.1909,252.9216,0.0017575,0.00027824,0.0,0 STARLINK-3105,1 49440U 21104AJ  23016.15138603  .00027824  00000-0  17575-2 0  9998,2 49440  53.2158 325.1164 0001218 107.1909 252.9216 15.08879352 66599,6917.76,95.435,540.4680000000001,538.783,0.0
49440.0,STARLINK-3105,PAYLOAD,2023-01-16 13:10:18,15.08861018,0.0001200999999999,53.2153,323.3332,104.4698,255.6427,0.00054701,8.433e-05,0.0,0 STARLINK-3105,1 49440U 21104AJ  23016.54882589  .00008433  00000-0  54701-3 0  9998,2 49440  53.2153 323.3332 0001201 104.4698 255.6427 15.08861018 66659,6917.816,95.436,540.512,538.85,0.0
49440.0,STARLINK-3105,PAYLOAD,2023-01-16 21:07:14,15.08823776,0.0001356,53.2156,321.8468,127.3254,232.7862,0.00033636,5.067e-05,0.0,0 STARLINK-3105,1 49440U 21104AJ  23016.88003188  .00005067  00000-0  33636-3 0  9999,2 49440  53.2156 321.8468 0001356 127.3254 232.7862 15.08823776 66702,6917.93,95.439,540.7330000000001,538.857,0.0
49440.0,STARLINK-3105,PAYLOAD,2023-01-17 13:01:07,15.08827308,0.0001805,53.2157,318.8727,89.0979,271.022,0.00091663,0.00014325,0.0,0 STARLINK-3105,1 49440U 21104AJ  23017.54244294  .00014325  00000-0  91663-3 0  9999,2 49440  53.2157 318.8727 0001805  89.0979 271.0220 15.08827308 65735,6917.919,95.438,541.033,538.535,0.0
49440.0,STARLINK-3105,PAYLOAD,2023-01-18 00:08:49,15.08813737,0.0001092,53.2154,316.7888,101.0588,259.0527,0.00063596,9.841e-05,0.0,0 STARLINK-3105,1 49440U 21104AJ  23018.00612918  .00009841  00000-0  63596-3 0  9994,2 49440  53.2154 316.7888 0001092 101.0588 259.0527 15.08813737 66879,6917.960999999999,95.439,540.581,539.07,0.0
49440.0,STARLINK-3105,PAYLOAD,2023-01-18 12:51:54,15.08844748,0.0001159,53.2149,314.4102,99.1527,260.9596,0.0017947,0.00028394,0.0,0 STARLINK-3105,1 49440U 21104AJ  23018.53605242  .00028394  00000-0  17947-2 0  9996,2 49440  53.2149 314.4102 0001159  99.1527 260.9596 15.08844748 65884,6917.866,95.437,540.533,538.929,0.0
49440.0,STARLINK-3105,PAYLOAD,2023-01-19 04:45:45,15.08886955,0.0001210999999999,53.2147,311.4371,98.2716,261.8413,0.0019735,0.00031301,0.0,0 STARLINK-3105,1 49440U 21104AJ  23019.19844038  .00031301  00000-0  19735-2 0  9996,2 49440  53.2147 311.4371 0001211  98.2716 261.8413 15.08886955 65981,6917.736999999999,95.435,540.44,538.764,0.0
49440.0,STARLINK-3105,PAYLOAD,2023-01-19 19:04:14,15.08841853,0.0001745,53.2143,308.7602,95.6705,264.4486,0.00079859,0.00012445,0.0,0 STARLINK-3105,1 49440U 21104AJ  23019.79460981  .00012445  00000-0  79859-3 0  9995,2 49440  53.2143 308.7602 0001745  95.6705 264.4486 15.08841853 67141,6917.875,95.437,540.947,538.533,0.0
49440.0,STARLINK-3105,PAYLOAD,2023-01-20 01:25:47,15.08842985,0.0002342,53.2153,307.571,85.4038,274.7221,0.0016448,0.00025989,0.0,0 STARLINK-3105,1 49440U 21104AJ  23020.05957470  .00025989  00000-0  16448-2 0  9991,2 49440  53.2153 307.5710 0002342  85.4038 274.7221 15.08842985 66113,6917.871,95.437,541.356,538.116,0.0
49440.0,STARLINK-3105,PAYLOAD,2023-01-20 22:05:48,15.08854104,0.0001541999999999,53.2139,303.7079,70.038,290.0778,0.0011771,0.00018502,0.0,0 STARLINK-3105,1 49440U 21104AJ  23020.92069586  .00018502  00000-0  11771-2 0  9996,2 49440  53.2139 303.7079 0001542  70.0380 290.0778 15.08854104 67311,6917.837,95.437,540.769,538.636,0.0
49440.0,STARLINK-3105,PAYLOAD,2023-01-21 04:27:20,15.08873478,0.0001498,53.2142,302.5172,81.5696,278.5466,0.0016064,0.00025394,0.0,0 STARLINK-3105,1 49440U 21104AJ  23021.18564991  .00025394  00000-0  16064-2 0  9992,2 49440  53.2142 302.5172 0001498  81.5696 278.5466 15.08873478 67357,6917.778,95.435,540.679,538.607,0.0
49440.0,STARLINK-3105,PAYLOAD,2023-01-22 04:18:07,15.08853747,0.0001415,53.2155,298.0583,63.4353,296.6784,0.0010886,0.00017086,0.0,0 STARLINK-3105,1 49440U 21104AJ  23022.17925030  .00017086  00000-0  10886-2 0  9992,2 49440  53.2155 298.0583 0001415  63.4353 296.6784 15.08853747 67502,6917.838000000001,95.437,540.682,538.724,0.0
49440.0,STARLINK-3105,PAYLOAD,2023-01-23 04:08:54,15.08856284,0.0001113,53.2145,293.5962,115.396,244.7147,0.0017837,0.00028226,0.0,0 STARLINK-3105,1 49440U 21104AJ  23023.17285433  .00028226  00000-0  17837-2 0  9990,2 49440  53.2145 293.5962 0001113 115.3960 244.7147 15.08856284 67650,6917.831,95.437,540.466,538.9259999999999,0.0
